*******************************************************************************
JPL/HORIZONS                 363 Padua (A893 FD)           2020-Jun-22 08:56:03
Rec #:     363 (+COV) Soln.date: 2020-May-20_01:04:08   # obs: 3826 (1991-2020)
 
IAU76/J2000 helio. ecliptic osc. elements (au, days, deg., period=Julian yrs):
 
  EPOCH=  2455565.5 ! 2011-Jan-04.00 (TDB)         Residual RMS= .16408
   EC= .07124021688025399  QR= 2.551260619722101   TP= 2455031.8818546627
   OM= 64.90531110447117   W=  293.4901227714119   IN= 5.944335472690989
   A= 2.746954235197719    MA= 115.5200922095525   ADIST= 2.942647850673336
   PER= 4.55287            N= .216484559           ANGMOM= .028438212
   DAN= 2.65755            DDN= 2.81289            L= 358.5085772
   B= -5.4501616           MOID= 1.55332994        TP= 2009-Jul-19.3818546627
 
Asteroid physical parameters (km, seconds, rotational period in hours):
   GM= n.a.                RAD= 48.5               ROTPER= 8.401
   H= 9.1                  G= .150                 B-V= .751
                           ALBEDO= .059            STYP= X
 
ASTEROID comments: 
1: soln ref.= JPL#106, OCC=0
2: source=ORB
*******************************************************************************
 
 
*******************************************************************************
Ephemeris / WWW_USER Mon Jun 22 08:56:03 2020 Pasadena, USA      / Horizons
*******************************************************************************
Target body name: 363 Padua (A893 FD)             {source: JPL#106}
Center body name: Solar System Barycenter (0)     {source: DE431}
Center-site name: BODY CENTER
*******************************************************************************
Start time      : A.D. 1969-Jun-28 00:00:00.0000 TDB
Stop  time      : A.D. 2071-May-04 00:00:00.0000 TDB
Step-size       : 7200 minutes
*******************************************************************************
Center geodetic : 0.00000000,0.00000000,0.0000000 {E-lon(deg),Lat(deg),Alt(km)}
Center cylindric: 0.00000000,0.00000000,0.0000000 {E-lon(deg),Dxy(km),Dz(km)}
Center radii    : (undefined)                                                  
Small perturbers: Yes                             {source: SB431-N16}
Output units    : AU-D
Output type     : GEOMETRIC cartesian states
Output format   : 2 (position and velocity)
Reference frame : Ecliptic of J2000.0
*******************************************************************************
Initial IAU76/J2000 heliocentric ecliptic osculating elements (au, days, deg.):
  EPOCH=  2455565.5 ! 2011-Jan-04.00 (TDB)         Residual RMS= .16408        
   EC= .07124021688025399  QR= 2.551260619722101   TP= 2455031.8818546627      
   OM= 64.90531110447117   W=  293.4901227714119   IN= 5.944335472690989       
  Equivalent ICRF heliocentric equatorial cartesian coordinates (au, au/d):
   X=-1.451960800804554E+00  Y= 2.133208993754726E+00  Z= 1.191090079559491E+00
  VX=-8.869482950002554E-03 VY=-4.500081031612400E-03 VZ=-1.262358108623593E-03
Asteroid physical parameters (km, seconds, rotational period in hours):        
   GM= n.a.                RAD= 48.5               ROTPER= 8.401               
   H= 9.1                  G= .150                 B-V= .751                   
                           ALBEDO= .059            STYP= X                     
*******************************************************************************
            JDTDB,            Calendar Date (TDB),        delta-T,                      X,                      Y,                      Z,                     VX,                     VY,                     VZ,
******************************************************************************************************************************************************************************************************************
$$SOE
2475400.500000000, A.D. 2065-Apr-25 00:00:00.0000,      69.185542, -1.880959653894189E-01,  2.736756903145080E+00,  1.419247987714769E-01, -1.033532356237502E-02, -1.424541012053556E-05,  9.669849266360436E-04,
2475405.500000000, A.D. 2065-Apr-30 00:00:00.0000,      69.185485, -2.397349182450435E-01,  2.736198091620273E+00,  1.467341304288193E-01, -1.031965564825661E-02, -2.091375037999669E-04,  9.566977582148810E-04,
2475410.500000000, A.D. 2065-May-05 00:00:00.0000,      69.185419, -2.912865324590656E-01,  2.734666997452686E+00,  1.514912817440897E-01, -1.030039411460664E-02, -4.031480365057025E-04,  9.461138246190968E-04,
2475415.500000000, A.D. 2065-May-10 00:00:00.0000,      69.185343, -3.427329307602156E-01,  2.732168183749465E+00,  1.561947844261778E-01, -1.027757542902233E-02, -5.962151188919260E-04,  9.352393421267188E-04,
2475420.500000000, A.D. 2065-May-15 00:00:00.0000,      69.185256, -3.940564202307248E-01,  2.728706519595384E+00,  1.608432012973918E-01, -1.025123685732988E-02, -7.882782483274196E-04,  9.240805391204660E-04,
2475425.500000000, A.D. 2065-May-20 00:00:00.0000,      69.185159, -4.452394961789690E-01,  2.724287173134464E+00,  1.654351263435572E-01, -1.022141641641784E-02, -9.792783025481789E-04,  9.126436519528518E-04,
2475430.500000000, A.D. 2065-May-25 00:00:00.0000,      69.185053, -4.962648457797064E-01,  2.718915604687580E+00,  1.699691847439366E-01, -1.018815282840249E-02, -1.169157531579082E-03,  9.009349210032270E-04,
2475435.500000000, A.D. 2065-May-30 00:00:00.0000,      69.184941, -5.471153514876793E-01,  2.712597559914799E+00,  1.744440328818437E-01, -1.015148547572801E-02, -1.357859548011194E-03,  8.889605868908381E-04,
2475440.500000000, A.D. 2065-Jun-04 00:00:00.0000,      69.184824, -5.977740942282611E-01,  2.705339063028116E+00,  1.788583583365981E-01, -1.011145435692489E-02, -1.545329316796433E-03,  8.767268867978337E-04,
2475445.500000000, A.D. 2065-Jun-09 00:00:00.0000,      69.184701, -6.482243563704689E-01,  2.697146410055164E+00,  1.832108798575011E-01, -1.006810004400775E-02, -1.731513144934482E-03,  8.642400509717892E-04,
2475450.500000000, A.D. 2065-Jun-14 00:00:00.0000,      69.184571, -6.984496244923681E-01,  2.688026162157547E+00,  1.875003473209231E-01, -1.002146364196319E-02, -1.916358669698920E-03,  8.515062994671625E-04,
2475455.500000000, A.D. 2065-Jun-19 00:00:00.0000,      69.184436, -7.484335919474882E-01,  2.677985139012910E+00,  1.917255416715850E-01, -9.971586749529070E-03, -2.099814845025745E-03,  8.385318390688241E-04,
2475460.500000000, A.D. 2065-Jun-24 00:00:00.0000,      69.184298, -7.981601612374754E-01,  2.667030412267887E+00,  1.958852748488071E-01, -9.918511420925343E-03, -2.281831926890058E-03,  8.253228603538613E-04,
2475465.500000000, A.D. 2065-Jun-29 00:00:00.0000,      69.184160, -8.476134461962045E-01,  2.655169299065759E+00,  1.999783896984257E-01, -9.862280128746428E-03, -2.462361458071920E-03,  8.118855348979901E-04,
2475470.500000000, A.D. 2065-Jul-04 00:00:00.0000,      69.184021, -8.967777739916043E-01,  2.642409355651770E+00,  2.040037598711185E-01, -9.802935728165121E-03, -2.641356252310596E-03,  7.982260126360512E-04,
2475475.500000000, A.D. 2065-Jul-09 00:00:00.0000,      69.183882, -9.456376869518471E-01,  2.628758371059289E+00,  2.079602897079291E-01, -9.740521422473258E-03, -2.818770377814265E-03,  7.843504193773663E-04,
2475480.500000000, A.D. 2065-Jul-14 00:00:00.0000,      69.183742, -9.941779442225565E-01,  2.614224360880018E+00,  2.118469141137426E-01, -9.675080729946349E-03, -2.994559140140119E-03,  7.702648544732868E-04,
2475485.500000000, A.D. 2065-Jul-19 00:00:00.0000,      69.183603, -1.042383523261603E+00,  2.598815561121258E+00,  2.156625984194730E-01, -9.606657452009870E-03, -3.168679064493566E-03,  7.559753886324933E-04,
2475490.500000000, A.D. 2065-Jul-24 00:00:00.0000,      69.183467, -1.090239621177957E+00,  2.582540422153038E+00,  2.194063382336936E-01, -9.535295642694027E-03, -3.341087877499513E-03,  7.414880618809214E-04,
2475495.500000000, A.D. 2065-Jul-29 00:00:00.0000,      69.183336, -1.137731655921004E+00,  2.565407602747574E+00,  2.230771592844129E-01, -9.461039579360443E-03, -3.511744488507679E-03,  7.268088816624479E-04,
2475500.500000000, A.D. 2065-Aug-03 00:00:00.0000,      69.183211, -1.184845267326644E+00,  2.547425964213235E+00,  2.266741172517061E-01, -9.383933734689555E-03, -3.680608970492366E-03,  7.119438210773534E-04,
2475505.500000000, A.D. 2065-Aug-08 00:00:00.0000,      69.183091, -1.231566318026470E+00,  2.528604564624900E+00,  2.301962975918750E-01, -9.304022749924959E-03, -3.847642540609611E-03,  6.968988172562745E-04,
2475510.500000000, A.D. 2065-Aug-13 00:00:00.0000,      69.182976, -1.277880894226362E+00,  2.508952653152275E+00,  2.336428153538176E-01, -9.221351409402372E-03, -4.012807540460520E-03,  6.816797698702407E-04,
2475515.500000000, A.D. 2065-Aug-18 00:00:00.0000,      69.182867, -1.323775306361112E+00,  2.488479664487669E+00,  2.370128149883022E-01, -9.135964616457925E-03, -4.176067416015844E-03,  6.662925397852782E-04,
2475520.500000000, A.D. 2065-Aug-23 00:00:00.0000,      69.182767, -1.369236089632246E+00,  2.467195213375495E+00,  2.403054701509096E-01, -9.047907370788765E-03, -4.337386696952580E-03,  6.507429478754498E-04,
2475525.500000000, A.D. 2065-Aug-28 00:00:00.0000,      69.182677, -1.414250004435629E+00,  2.445109089247086E+00,  2.435199834994083E-01, -8.957224746882589E-03, -4.496730975211496E-03,  6.350367739756384E-04,
2475530.500000000, A.D. 2065-Sep-02 00:00:00.0000,      69.182598, -1.458804036682349E+00,  2.422231250963290E+00,  2.466555864860977E-01, -8.863961872841868E-03, -4.654066883527770E-03,  6.191797559030973E-04,
2475535.500000000, A.D. 2065-Sep-07 00:00:00.0000,      69.182528, -1.502885398015194E+00,  2.398571821662540E+00,  2.497115391453813E-01, -8.768163909961045E-03, -4.809362074722643E-03,  6.031775885377478E-04,
